[{"OBJECT_NAME":"STARLINK-1570","OBJECT_ID":"2020-055AJ","EPOCH":"2026-02-06T00:12:25.656192","MEAN_MOTION":15.06401021,"ECCENTRICITY":0.00015559,"INCLINATION":53.0547,"RA_OF_ASC_NODE":258.8391,"ARG_OF_PERICENTER":88.4171,"MEAN_ANOMALY":271.6996,"EPHEMERIS_TYPE":0,"CLASSIFICATION_TYPE":"U","NORAD_CAT_ID":46059,"ELEMENT_SET_NO":999,"REV_AT_EPOCH":30421,"BSTAR":5.5502789e-5,"MEAN_MOTION_DOT":5.45e-6,"MEAN_MOTION_DDOT":0},{"OBJECT_NAME":"STARLINK-1572","OBJECT_ID":"2020-055AK","EPOCH":"2026-02-06T00:07:07.978080","MEAN_MOTION":15.06401687,"ECCENTRICITY":0.00013227,"INCLINATION":53.053,"RA_OF_ASC_NODE":258.8549,"ARG_OF_PERICENTER":98.5412,"MEAN_ANOMALY":261.5727,"EPHEMERIS_TYPE":0,"CLASSIFICATION_TYPE":"U","NORAD_CAT_ID":46060,"ELEMENT_SET_NO":999,"REV_AT_EPOCH":30422,"BSTAR":0.00021584315,"MEAN_MOTION_DOT":2.935e-5,"MEAN_MOTION_DDOT":0},{"OBJECT_NAME":"STARLINK-1573","OBJECT_ID":"2020-055AL","EPOCH":"2026-02-06T00:01:48.320544","MEAN_MOTION":15.06421976,"ECCENTRICITY":0.0001379,"INCLINATION":53.0534,"RA_OF_ASC_NODE":258.9073,"ARG_OF_PERICENTER":99.0137,"MEAN_ANOMALY":261.1008,"EPHEMERIS_TYPE":0,"CLASSIFICATION_TYPE":"U","NORAD_CAT_ID":46061,"ELEMENT_SET_NO":999,"REV_AT_EPOCH":30425,"BSTAR":0.0005950666,"MEAN_MOTION_DOT":8.598e-5,"MEAN_MOTION_DDOT":0},{"OBJECT_NAME":"STARLINK-1577","OBJECT_ID":"2020-055AN","EPOCH":"2026-02-06T00:38:58.289856","MEAN_MOTION":15.06398189,"ECCENTRICITY":0.00016174,"INCLINATION":53.0556,"RA_OF_ASC_NODE":258.7546,"ARG_OF_PERICENTER":101.016,"MEAN_ANOMALY":259.1011,"EPHEMERIS_TYPE":0,"CLASSIFICATION_TYPE":"U","NORAD_CAT_ID":46063,"ELEMENT_SET_NO":999,"REV_AT_EPOCH":30425,"BSTAR":0.00019011221,"MEAN_MOTION_DOT":2.551e-5,"MEAN_MOTION_DDOT":0},{"OBJECT_NAME":"STARLINK-1583","OBJECT_ID":"2020-055AP","EPOCH":"2026-02-05T23:51:13.277088","MEAN_MOTION":15.06396652,"ECCENTRICITY":0.00015249,"INCLINATION":53.0548,"RA_OF_ASC_NODE":258.9055,"ARG_OF_PERICENTER":91.8756,"MEAN_ANOMALY":268.2407,"EPHEMERIS_TYPE":0,"CLASSIFICATION_TYPE":"U","NORAD_CAT_ID":46064,"ELEMENT_SET_NO":999,"REV_AT_EPOCH":30425,"BSTAR":-3.2977665e-5,"MEAN_MOTION_DOT":-7.73e-6,"MEAN_MOTION_DDOT":0},{"OBJECT_NAME":"STARLINK-1525","OBJECT_ID":"2020-055AR","EPOCH":"2026-02-05T22:13:00.716736","MEAN_MOTION":15.06391875,"ECCENTRICITY":0.0001244,"INCLINATION":53.0553,"RA_OF_ASC_NODE":239.2108,"ARG_OF_PERICENTER":91.7065,"MEAN_ANOMALY":268.4067,"EPHEMERIS_TYPE":0,"CLASSIFICATION_TYPE":"U","NORAD_CAT_ID":46066,"ELEMENT_SET_NO":999,"REV_AT_EPOCH":30451,"BSTAR":0.000127,"MEAN_MOTION_DOT":1.61e-5,"MEAN_MOTION_DDOT":0},{"OBJECT_NAME":"STARLINK-1536","OBJECT_ID":"2020-055AV","EPOCH":"2026-02-05T23:16:40.605888","MEAN_MOTION":15.0643666,"ECCENTRICITY":0.000162,"INCLINATION":53.0555,"RA_OF_ASC_NODE":239.0121,"ARG_OF_PERICENTER":108.976,"MEAN_ANOMALY":251.1405,"EPHEMERIS_TYPE":0,"CLASSIFICATION_TYPE":"U","NORAD_CAT_ID":46070,"ELEMENT_SET_NO":999,"REV_AT_EPOCH":30453,"BSTAR":-0.00067848,"MEAN_MOTION_DOT":-0.00010383,"MEAN_MOTION_DDOT":0},{"OBJECT_NAME":"STARLINK-1542","OBJECT_ID":"2020-055AY","EPOCH":"2026-02-05T18:19:29.559648","MEAN_MOTION":15.0639351,"ECCENTRICITY":8.14e-5,"INCLINATION":53.055,"RA_OF_ASC_NODE":239.9384,"ARG_OF_PERICENTER":102,"MEAN_ANOMALY":258.108,"EPHEMERIS_TYPE":0,"CLASSIFICATION_TYPE":"U","NORAD_CAT_ID":46073,"ELEMENT_SET_NO":999,"REV_AT_EPOCH":30449,"BSTAR":-5.3244064e-5,"MEAN_MOTION_DOT":-1.074e-5,"MEAN_MOTION_DDOT":0},{"OBJECT_NAME":"STARLINK-1549","OBJECT_ID":"2020-055AZ","EPOCH":"2026-02-05T21:09:20.285856","MEAN_MOTION":15.06381391,"ECCENTRICITY":0.0001448,"INCLINATION":53.0558,"RA_OF_ASC_NODE":239.4086,"ARG_OF_PERICENTER":80.2005,"MEAN_ANOMALY":279.9148,"EPHEMERIS_TYPE":0,"CLASSIFICATION_TYPE":"U","NORAD_CAT_ID":46074,"ELEMENT_SET_NO":999,"REV_AT_EPOCH":30450,"BSTAR":-3.2529e-5,"MEAN_MOTION_DOT":-7.66e-6,"MEAN_MOTION_DDOT":0},{"OBJECT_NAME":"STARLINK-1551","OBJECT_ID":"2020-055BA","EPOCH":"2026-02-05T23:21:59.881536","MEAN_MOTION":15.06405506,"ECCENTRICITY":0.00012746,"INCLINATION":53.0554,"RA_OF_ASC_NODE":238.9955,"ARG_OF_PERICENTER":87.7434,"MEAN_ANOMALY":272.3701,"EPHEMERIS_TYPE":0,"CLASSIFICATION_TYPE":"U","NORAD_CAT_ID":46075,"ELEMENT_SET_NO":999,"REV_AT_EPOCH":30452,"BSTAR":9.2741689e-5,"MEAN_MOTION_DOT":1.1e-5,"MEAN_MOTION_DDOT":0},{"OBJECT_NAME":"STARLINK-1552","OBJECT_ID":"2020-055BB","EPOCH":"2026-02-05T23:59:09.563136","MEAN_MOTION":15.06405968,"ECCENTRICITY":0.00015234,"INCLINATION":53.056,"RA_OF_ASC_NODE":238.8807,"ARG_OF_PERICENTER":89.9024,"MEAN_ANOMALY":270.214,"EPHEMERIS_TYPE":0,"CLASSIFICATION_TYPE":"U","NORAD_CAT_ID":46076,"ELEMENT_SET_NO":999,"REV_AT_EPOCH":30451,"BSTAR":0.00016423718,"MEAN_MOTION_DOT":2.166e-5,"MEAN_MOTION_DDOT":0},{"OBJECT_NAME":"STARLINK-1559","OBJECT_ID":"2020-055BC","EPOCH":"2026-02-05T21:40:46.208640","MEAN_MOTION":15.2638066,"ECCENTRICITY":0.0002216,"INCLINATION":53.0307,"RA_OF_ASC_NODE":221.5543,"ARG_OF_PERICENTER":194.7486,"MEAN_ANOMALY":165.3448,"EPHEMERIS_TYPE":0,"CLASSIFICATION_TYPE":"U","NORAD_CAT_ID":46077,"ELEMENT_SET_NO":999,"REV_AT_EPOCH":30472,"BSTAR":0.0028432,"MEAN_MOTION_DOT":0.00075356,"MEAN_MOTION_DDOT":0},{"OBJECT_NAME":"STARLINK-1566","OBJECT_ID":"2020-055BE","EPOCH":"2026-02-05T22:50:09.752064","MEAN_MOTION":15.06403318,"ECCENTRICITY":0.0001773,"INCLINATION":53.0566,"RA_OF_ASC_NODE":239.0958,"ARG_OF_PERICENTER":89.092,"MEAN_ANOMALY":271.0272,"EPHEMERIS_TYPE":0,"CLASSIFICATION_TYPE":"U","NORAD_CAT_ID":46079,"ELEMENT_SET_NO":999,"REV_AT_EPOCH":30452,"BSTAR":-7.8237e-6,"MEAN_MOTION_DOT":-3.98e-6,"MEAN_MOTION_DDOT":0},{"OBJECT_NAME":"STARLINK-1568","OBJECT_ID":"2020-055BF","EPOCH":"2026-02-05T17:30:03.237696","MEAN_MOTION":15.43680308,"ECCENTRICITY":0.00025929,"INCLINATION":53.0631,"RA_OF_ASC_NODE":185.1159,"ARG_OF_PERICENTER":71.819,"MEAN_ANOMALY":288.3097,"EPHEMERIS_TYPE":0,"CLASSIFICATION_TYPE":"U","NORAD_CAT_ID":46080,"ELEMENT_SET_NO":999,"REV_AT_EPOCH":30525,"BSTAR":0.0010858444,"MEAN_MOTION_DOT":0.0004964,"MEAN_MOTION_DDOT":0},{"OBJECT_NAME":"STARLINK-1578","OBJECT_ID":"2020-055BH","EPOCH":"2026-02-05T23:11:24.962496","MEAN_MOTION":15.06390499,"ECCENTRICITY":0.0001446,"INCLINATION":53.0552,"RA_OF_ASC_NODE":239.029,"ARG_OF_PERICENTER":98.1592,"MEAN_ANOMALY":261.9561,"EPHEMERIS_TYPE":0,"CLASSIFICATION_TYPE":"U","NORAD_CAT_ID":46082,"ELEMENT_SET_NO":999,"REV_AT_EPOCH":30452,"BSTAR":-6.4201e-5,"MEAN_MOTION_DOT":-1.237e-5,"MEAN_MOTION_DDOT":0},{"OBJECT_NAME":"STARLINK-1579","OBJECT_ID":"2020-055BJ","EPOCH":"2026-02-05T22:27:33.877728","MEAN_MOTION":15.06415384,"ECCENTRICITY":0.0001542,"INCLINATION":53.0541,"RA_OF_ASC_NODE":239.1556,"ARG_OF_PERICENTER":102.1105,"MEAN_ANOMALY":258.0056,"EPHEMERIS_TYPE":0,"CLASSIFICATION_TYPE":"U","NORAD_CAT_ID":46083,"ELEMENT_SET_NO":999,"REV_AT_EPOCH":30451,"BSTAR":-0.00018142,"MEAN_MOTION_DOT":-2.984e-5,"MEAN_MOTION_DDOT":0}]
