STARLINK-1570           
1 46059U 20055AJ  26037.00863028  .00000545  00000+0  55503-4 0  9996
2 46059  53.0547 258.8391 0001555  88.4171 271.6996 15.06401021304211
STARLINK-1572           
1 46060U 20055AK  26037.00495345  .00002935  00000+0  21584-3 0  9997
2 46060  53.0530 258.8549 0001322  98.5412 261.5727 15.06401687304221
STARLINK-1573           
1 46061U 20055AL  26037.00125371  .00008598  00000+0  59507-3 0  9994
2 46061  53.0534 258.9073 0001379  99.0137 261.1008 15.06421976304255
STARLINK-1577           
1 46063U 20055AN  26037.02706354  .00002551  00000+0  19011-3 0  9993
2 46063  53.0556 258.7546 0001617 101.0160 259.1011 15.06398189304259
STARLINK-1583           
1 46064U 20055AP  26036.99390367 -.00000773  00000+0 -32978-4 0  9996
2 46064  53.0548 258.9055 0001524  91.8756 268.2407 15.06396652304255
STARLINK-1525           
1 46066U 20055AR  26036.92570274  .00001610  00000+0  12700-3 0  9997
2 46066  53.0553 239.2108 0001244  91.7065 268.4067 15.06391875304510
STARLINK-1536           
1 46070U 20055AV  26036.96991442 -.00010383  00000+0 -67848-3 0  9992
2 46070  53.0555 239.0121 0001620 108.9760 251.1405 15.06436660304530
STARLINK-1542           
1 46073U 20055AY  26036.76353657 -.00001074  00000+0 -53244-4 0  9996
2 46073  53.0550 239.9384 0000814 102.0000 258.1080 15.06393510304491
STARLINK-1549           
1 46074U 20055AZ  26036.88148479 -.00000766  00000+0 -32529-4 0  9994
2 46074  53.0558 239.4086 0001448  80.2005 279.9148 15.06381391304502
STARLINK-1551           
1 46075U 20055BA  26036.97360974  .00001100  00000+0  92742-4 0  9995
2 46075  53.0554 238.9955 0001274  87.7434 272.3701 15.06405506304522
STARLINK-1552           
1 46076U 20055BB  26036.99941624  .00002166  00000+0  16424-3 0  9990
2 46076  53.0560 238.8807 0001523  89.9024 270.2140 15.06405968304516
STARLINK-1559           
1 46077U 20055BC  26036.90331260  .00075356  00000+0  28432-2 0  9993
2 46077  53.0307 221.5543 0002216 194.7486 165.3448 15.26380660304720
STARLINK-1566           
1 46079U 20055BE  26036.95150176 -.00000398  00000+0 -78237-5 0  9992
2 46079  53.0566 239.0958 0001773  89.0920 271.0272 15.06403318304521
STARLINK-1568           
1 46080U 20055BF  26036.72920414  .00049640  00000+0  10858-2 0  9992
2 46080  53.0631 185.1159 0002592  71.8190 288.3097 15.43680308305252
STARLINK-1578           
1 46082U 20055BH  26036.96626114 -.00001237  00000+0 -64201-4 0  9995
2 46082  53.0552 239.0290 0001446  98.1592 261.9561 15.06390499304526
STARLINK-1579           
1 46083U 20055BJ  26036.93580877 -.00002984  00000+0 -18142-3 0  9990
2 46083  53.0541 239.1556 0001542 102.1105 258.0056 15.06415384304510
